ICEYE-X26               
1 56961U 23084AF  26068.94217167  .00072488  00000+0  52392-3 0  9995
2 56961  97.5771 224.5701 0000918 250.4470 109.6694 15.73279775153542
STARLINK-11611 [DTC]    
1 63138U 25043G   26068.50041783  .00231026  00000+0  17495-2 0  9996
2 63138  42.9991 251.7419 0001326 243.2263 116.8469 15.70906082 59445
